[{"OBJECT_NAME":"POLYITAN-1","OBJECT_ID":"2014-033AJ","EPOCH":"2026-03-09T22:27:50.258304","MEAN_MOTION":15.29568085,"ECCENTRICITY":0.00093607,"INCLINATION":98.1053,"RA_OF_ASC_NODE":86.0432,"ARG_OF_PERICENTER":127.248,"MEAN_ANOMALY":232.9614,"EPHEMERIS_TYPE":0,"CLASSIFICATION_TYPE":"U","NORAD_CAT_ID":40042,"ELEMENT_SET_NO":999,"REV_AT_EPOCH":63840,"BSTAR":0.00083772474,"MEAN_MOTION_DOT":0.00024003,"MEAN_MOTION_DDOT":0},{"OBJECT_NAME":"STARLINK-34591","OBJECT_ID":"2025-144L","EPOCH":"2026-03-09T14:54:15.305472","MEAN_MOTION":15.3017624,"ECCENTRICITY":0.0001347,"INCLINATION":53.1602,"RA_OF_ASC_NODE":181.2038,"ARG_OF_PERICENTER":69.0087,"MEAN_ANOMALY":291.1057,"EPHEMERIS_TYPE":0,"CLASSIFICATION_TYPE":"U","NORAD_CAT_ID":64734,"ELEMENT_SET_NO":999,"REV_AT_EPOCH":3968,"BSTAR":0.0010016,"MEAN_MOTION_DOT":0.00029402,"MEAN_MOTION_DDOT":0}]
